STARLINK-5978           
1 56769U 23078C   23270.75080775 -.00000026  00000+0  56450-5 0  9999
2 56769  69.9992  98.3992 0002936 276.5278  83.5547 14.98324087 18542
STARLINK-6342           
1 56770U 23078D   23270.55467997  .00000125  00000+0  18274-4 0  9994
2 56770  69.9990  98.9186 0003032 271.8043  88.2769 14.98331325 18258
STARLINK-6339           
1 56771U 23078E   23270.58253590 -.00001661  00000+0 -12042-4 0  9995
2 56771  69.9990  77.8672 0003931 258.4878 101.5876 15.69920089 19035
STARLINK-6275           
1 56772U 23078F   23270.74661261 -.00000033  00000+0  50272-5 0  9991
2 56772  69.9989  98.3837 0003059 271.9961  88.0848 14.98333087 18549
STARLINK-6296           
1 56773U 23078G   23270.51871539 -.00000885  00000+0 -55955-5 0  9997
2 56773  69.9989  78.0447 0003554 257.5314 102.5484 15.69917467 18765
STARLINK-6190           
1 56774U 23078H   23270.54215645  .00001090  00000+0  99100-4 0  9997
2 56774  69.9984  98.8734 0003087 269.1405  90.9400 14.98328874 18252
STARLINK-6292           
1 56775U 23078J   23270.51818951  .00001671  00000+0  15668-4 0  9996
2 56775  69.9985  78.0430 0003410 277.1123  82.9685 15.69918673 18766
STARLINK-6274           
1 56776U 23078K   23270.51861143 -.00003141  00000+0 -24360-4 0  9993
2 56776  69.9980  78.0446 0002587 277.1387  82.9515 15.69929672 18768
STARLINK-5582           
1 56777U 23078L   23270.83334491 -.00884245  00000+0 -36816-1 0  9998
2 56777  69.9990  79.2345 0003374 271.3819  57.5170 15.26464233 19027
STARLINK-6304           
1 56778U 23078M   23270.58223077 -.00000056  00000+0  13031-5 0  9995
2 56778  69.9987  77.8642 0002821 269.1244  90.9628 15.69902098 19034
STARLINK-6231           
1 56779U 23078N   23270.58104766  .00003201  00000+0  28369-4 0  9992
2 56779  69.9993  77.8604 0003256 272.1129  87.9694 15.69933273 19037
STARLINK-5963           
1 56780U 23078P   23270.58334491 -.00946467  00000+0 -34675-1 0  9990
2 56780  69.9994  80.1305 0003347 273.3242 279.8411 15.30818733  6020
STARLINK-5989           
1 56781U 23078Q   23270.83334491 -.00891109  00000+0 -35427-1 0  9997
2 56781  69.9989  79.1530 0003376 276.9565 123.7602 15.28000820 19022
STARLINK-6352           
1 56782U 23078R   23270.51840072 -.00001139  00000+0 -77051-5 0  9999
2 56782  69.9972  78.0441 0003445 268.9246  91.1555 15.69921442 18760
STARLINK-6357           
1 56783U 23078S   23270.51808823  .00001047  00000+0  10481-4 0  9997
2 56783  69.9976  78.0436 0003011 268.3809  91.7042 15.69907153 18767
STARLINK-6354           
1 56784U 23078T   23270.58200986  .00003341  00000+0  29554-4 0  9991
2 56784  69.9978  77.8645 0003212 274.4647  85.6182 15.69915630 19037
STARLINK-5931           
1 56785U 23078U   23270.58334491 -.00963937  00000+0 -38105-1 0  9998
2 56785  69.9991  79.8424 0003363 272.7662 167.0813 15.27959808  6025
STARLINK-6341           
1 56786U 23078V   23270.58169237 -.00002123  00000+0 -15886-4 0  9998
2 56786  69.9977  77.8641 0003521 269.0325  91.0468 15.69928563 19037
STARLINK-6326           
1 56787U 23078W   23270.51745150 -.00001943  00000+0 -14399-4 0  9993
2 56787  69.9992  78.0399 0002625 267.5601  92.5294 15.69917940 18761
STARLINK-6336           
1 56788U 23078X   23270.51766312 -.00001394  00000+0 -98324-5 0  9998
2 56788  69.9979  78.0407 0003054 268.1307  91.9539 15.69920760 18763
STARLINK-6325           
1 56789U 23078Y   23270.58012415 -.00007071  00000+0 -57154-4 0  9997
2 56789  69.9992  77.8571 0002879 273.7408  86.3459 15.69899205 19035
STARLINK-6345           
1 56790U 23078Z   23270.58127014 -.00003430  00000+0 -26764-4 0  9999
2 56790  69.9981  77.8609 0002855 266.5513  93.5357 15.69934574 19034
STARLINK-5977           
1 56791U 23078AA  23270.83334491 -.00891665  00000+0 -35313-1 0  9999
2 56791  69.9988  79.1459 0003391 275.8260 131.1251 15.28127977 19025
STARLINK-6046           
1 56792U 23078AB  23270.58334491 -.00964671  00000+0 -38671-1 0  9990
2 56792  69.9991  79.8656 0003407 271.9927 147.2660 15.27503985  5923
STARLINK-6052           
1 56793U 23078AC  23270.83334491 -.00892856  00000+0 -35119-1 0  9998
2 56793  69.9989  79.1318 0003365 276.2535 142.7985 15.28355024 19021
STARLINK-6060           
1 56794U 23078AD  23270.51682089 -.00001531  00000+0 -10968-4 0  9993
2 56794  69.9976  78.0386 0003555 264.7421  95.3369 15.69918585 18769
STARLINK-6061           
1 56795U 23078AE  23270.57895498  .00001857  00000+0  17211-4 0  9997
2 56795  69.9994  77.8524 0002768 264.4765  95.6115 15.69917667 19037
STARLINK-6049           
1 56796U 23078AF  23270.83334491 -.00889346  00000+0 -35768-1 0  9991
2 56796  69.9988  79.1725 0003411 274.5117 108.8733 15.27617169 19028
STARLINK-6058           
1 56797U 23078AG  23270.58334491 -.01096374  00000+0 -44825-1 0  9990
2 56797  70.0000  79.5717 0003410 266.9030  52.6861 15.27214736 18996
STARLINK-6068           
1 56798U 23078AH  23270.51660800 -.00001864  00000+0 -13743-4 0  9997
2 56798  69.9992  78.0378 0003493 268.2547  91.8249 15.69913173 19432
STARLINK-5953           
1 56799U 23078AJ  23270.91667824 -.00877240  00000+0 -33382-1 0  9992
2 56799  69.9990  78.8516 0003326 274.1536 296.7700 15.29380365 19044
STARLINK-6036           
1 56800U 23078AK  23270.83334491 -.00891842  00000+0 -35214-1 0  9997
2 56800  69.9988  79.1404 0003395 275.1058 136.8532 15.28226511 19026
STARLINK-6087           
1 56801U 23078AL  23270.51544703 -.00002792  00000+0 -21461-4 0  9992
2 56801  69.9996  78.0320 0002948 273.9892  86.0967 15.69923172 18766
STARLINK-6070           
1 56802U 23078AM  23270.51619234  .00000147  00000+0  29981-5 0  9991
2 56802  69.9967  78.0359 0003388 263.1195  96.9615 15.69910146 18760
STARLINK-6029           
1 56803U 23078AN  23270.83334491 -.00892312  00000+0 -34634-1 0  9998
2 56803  69.9990  79.1106 0003327 275.8512 162.0218 15.28786119 19025
STARLINK-6069           
1 56804U 23078AP  23270.51629031 -.00001405  00000+0 -99162-5 0  9997
2 56804  69.9983  78.0360 0002963 272.4544  87.6312 15.69926106 19430
STARLINK-6064           
1 56805U 23078AQ  23270.57948179 -.00001335  00000+0 -93336-5 0  9990
2 56805  69.9989  77.8553 0003454 285.3389  74.7425 15.69916159 19039
STARLINK-6072           
1 56806U 23078AR  23270.57968918 -.00001918  00000+0 -14185-4 0  9995
2 56806  69.9982  77.8542 0003453 263.6892  96.3910 15.69921687 19039
STARLINK-6073           
1 56807U 23078AS  23270.51481584 -.00002443  00000+0 -18564-4 0  9998
2 56807  70.0004  78.0297 0003237 261.5113  98.5716 15.69910724 18768
STARLINK-6042           
1 56808U 23078AT  23270.78746176  .00107371  00000+0  74452-3 0  9990
2 56808  69.9966  76.9502 0005122 264.4530  95.6084 15.73979356 19071
STARLINK-6040           
1 56809U 23078AU  23270.58334491 -.00959861  00000+0 -35540-1 0  9996
2 56809  69.9994  79.7347 0003341 270.7470 264.0103 15.30073381  6026
STARLINK-6031           
1 56810U 23078AV  23270.83334491 -.00893132  00000+0 -34371-1 0  9995
2 56810  69.9991  79.0971 0003310 275.0151 175.1590 15.29066054 19024
STARLINK-6063           
1 56811U 23078AW  23270.51450052  .00000528  00000+0  61678-5 0  9994
2 56811  69.9982  78.0296 0004040 267.7263  92.3470 15.69913021 18763
STARLINK-6065           
1 56812U 23078AX  23270.57884506  .00000322  00000+0  44455-5 0  9992
2 56812  69.9992  77.8524 0003683 270.1307  89.9467 15.69923881 19039
STARLINK-6056           
1 56813U 23078AY  23270.58334491 -.00960168  00000+0 -35221-1 0  9999
2 56813  69.9995  79.7184 0003360 269.5283 279.3835 15.30374831  4427
STARLINK-6059           
1 56814U 23078AZ  23270.58334491 -.00960403  00000+0 -35496-1 0  9996
2 56814  69.9994  79.7302 0003355 268.6216 270.1103 15.30132853  6020
STARLINK-6057           
1 56815U 23078BA  23270.83334491 -.00591526  00000+0 -12331-1 0  9994
2 56815  69.9989  82.0049 0003617 275.3822 171.3829 15.47571065 18951
STARLINK-6067           
1 56816U 23078BB  23270.57800548 -.00000279  00000+0 -55761-6 0  9996
2 56816  69.9987  77.8502 0002642 262.1986  97.8910 15.69922395 19031
STARLINK-5982           
1 56817U 23078BC  23270.58334491 -.00958942  00000+0 -35759-1 0  9996
2 56817  69.9993  79.7458 0003301 273.5130 251.3994 15.29842130  5803
STARLINK-6028           
1 56818U 23078BD  23270.58334491 -.00946135  00000+0 -34757-1 0  9995
2 56818  69.9994  79.7019 0003330 270.1075 293.2486 15.30730816  5801
STARLINK-30119          
1 56823U 23079A   23270.44571063  .00029736  00000+0  15999-2 0  9990
2 56823  43.0009 288.4086 0001126 261.0291  99.0428 15.14325529 18771
STARLINK-30120          
1 56824U 23079B   23270.42006202  .00021469  00000+0  11601-2 0  9998
2 56824  42.9994 289.0712 0000685 271.3735  88.7033 15.14317643 18654
STARLINK-30084          
1 56825U 23079C   23270.54867807  .00000272  00000+0  26797-4 0  9991
2 56825  42.9992 288.3142 0000740 271.9390  88.1372 15.14322760 18024
STARLINK-30114          
1 56826U 23079D   23270.44556955 -.00001046  00000+0 -62411-4 0  9995
2 56826  42.9996 286.5377 0000991 263.0881  96.9848 15.02534966 18681
STARLINK-30151          
1 56827U 23079E   23270.47942813  .00036154  00000+0  19411-2 0  9997
2 56827  43.0002 288.6556 0000994 262.6226  97.4508 15.14321081 18342
STARLINK-30152          
1 56828U 23079F   23270.47612717  .00036939  00000+0  19824-2 0  9994
2 56828  43.0002 288.6300 0000903 257.6757 102.3989 15.14327659 18349
STARLINK-30128          
1 56832U 23079K   23270.45934705 -.00008797  00000+0 -63681-3 0  9995
2 56832  42.9990 260.4014 0001391 278.3820  81.6865 15.02543815 12269
STARLINK-30131          
1 56833U 23079L   23270.91667824  .00053911  00000+0  39789-2 0  9999
2 56833  43.0004 257.9031 0000898 227.3600 161.1194 15.02501851 18415
STARLINK-30069          
1 56834U 23079M   23270.49431691  .00019246  00000+0  10415-2 0  9992
2 56834  43.0004 287.9110 0001093 262.3044  97.7679 15.14319779 18350
